ORBCOMM FM20            
1 25416U 98046D   24297.49466326  .00002359  00000+0  85123-3 0  9999
2 25416  44.9933 221.3558 0000938 343.5817  16.5000 14.36087268370220
ORBCOMM FM16            
1 25417U 98046E   24297.60276967  .00003383  00000+0  11685-2 0  9992
2 25417  44.9926 215.1936 0002831 189.1547 170.9250 14.37386467370194
ORBCOMM FM15            
1 25418U 98046F   24297.52406135  .00003097  00000+0  10809-2 0  9995
2 25418  44.9960 220.0448 0002411 194.8057 165.2720 14.37064266370187
ORBCOMM FM14            
1 25419U 98046G   24297.17703654  .00003164  00000+0  10977-2 0  9994
2 25419  44.9949 220.5233 0001188 172.8396 187.2469 14.37319226370097
ORBCOMM FM13            
1 25420U 98046H   24297.52442109  .00002678  00000+0  95385-3 0  9996
2 25420  44.9965 224.7956 0003337 168.8401 191.2521 14.36387501369198
ORBCOMM FM21            
1 25475U 98053A   24297.41911269  .00002348  00000+0  84543-3 0  9998
2 25475  45.0084 309.9102 0001455 280.1918  79.8765 14.36211340363193
ORBCOMM FM22            
1 25476U 98053B   24297.46575707  .00002815  00000+0  98940-3 0  9992
2 25476  45.0078 306.1966 0000238 108.2537 251.8336 14.36927995363207
ORBCOMM FM23            
1 25477U 98053C   24297.44162832  .00002546  00000+0  91148-3 0  9996
2 25477  45.0086 312.1676 0000493 271.9520  88.1271 14.36275348363347
